{"fetched_at":"2026-03-29T16:36:15Z","count":15609,"tles":[{"name":"STARLINK-11297 [DTC]","line1":"1 61060U 24164L   26087.83696490  .00003371  00000+0  32647-4 0  9997","line2":"2 61060  53.1583 217.0633 0000696 107.3571 252.7523 15.69727237 88424","category":"Starlink"}]}